[{"OBJECT_NAME":"ISS (ZARYA)","OBJECT_ID":"1998-067A","EPOCH":"2026-04-29T16:24:41.969376","MEAN_MOTION":15.49024031,"ECCENTRICITY":0.0007117,"INCLINATION":51.6318,"RA_OF_ASC_NODE":180.1788,"ARG_OF_PERICENTER":4.9077,"MEAN_ANOMALY":355.1979,"EPHEMERIS_TYPE":0,"CLASSIFICATION_TYPE":"U","NORAD_CAT_ID":25544,"ELEMENT_SET_NO":999,"REV_AT_EPOCH":56423,"BSTAR":0.00014081,"MEAN_MOTION_DOT":7.324e-5,"MEAN_MOTION_DDOT":0},{"OBJECT_NAME":"POISK","OBJECT_ID":"2009-060A","EPOCH":"2026-04-29T16:24:41.969376","MEAN_MOTION":15.49024031,"ECCENTRICITY":0.0007117,"INCLINATION":51.6318,"RA_OF_ASC_NODE":180.1788,"ARG_OF_PERICENTER":4.9077,"MEAN_ANOMALY":355.1979,"EPHEMERIS_TYPE":0,"CLASSIFICATION_TYPE":"U","NORAD_CAT_ID":36086,"ELEMENT_SET_NO":999,"REV_AT_EPOCH":56424,"BSTAR":0.00014081,"MEAN_MOTION_DOT":7.324e-5,"MEAN_MOTION_DDOT":0},{"OBJECT_NAME":"CSS (TIANHE)","OBJECT_ID":"2021-035A","EPOCH":"2026-04-29T19:17:34.939104","MEAN_MOTION":15.63178569,"ECCENTRICITY":0.0006704,"INCLINATION":41.4671,"RA_OF_ASC_NODE":256.5685,"ARG_OF_PERICENTER":298.3463,"MEAN_ANOMALY":61.67,"EPHEMERIS_TYPE":0,"CLASSIFICATION_TYPE":"U","NORAD_CAT_ID":48274,"ELEMENT_SET_NO":999,"REV_AT_EPOCH":28560,"BSTAR":0.00031039,"MEAN_MOTION_DOT":0.00028989,"MEAN_MOTION_DDOT":0},{"OBJECT_NAME":"ISS (NAUKA)","OBJECT_ID":"2021-066A","EPOCH":"2026-04-29T16:24:41.969376","MEAN_MOTION":15.49024031,"ECCENTRICITY":0.0007117,"INCLINATION":51.6318,"RA_OF_ASC_NODE":180.1788,"ARG_OF_PERICENTER":4.9077,"MEAN_ANOMALY":355.1979,"EPHEMERIS_TYPE":0,"CLASSIFICATION_TYPE":"U","NORAD_CAT_ID":49044,"ELEMENT_SET_NO":999,"REV_AT_EPOCH":56428,"BSTAR":0.00014081,"MEAN_MOTION_DOT":7.324e-5,"MEAN_MOTION_DDOT":0},{"OBJECT_NAME":"FREGAT DEB","OBJECT_ID":"2011-037PF","EPOCH":"2026-04-29T10:19:44.050080","MEAN_MOTION":12.41136557,"ECCENTRICITY":0.09380911,"INCLINATION":51.6406,"RA_OF_ASC_NODE":148.3773,"ARG_OF_PERICENTER":175.6076,"MEAN_ANOMALY":185.3774,"EPHEMERIS_TYPE":0,"CLASSIFICATION_TYPE":"U","NORAD_CAT_ID":49271,"ELEMENT_SET_NO":999,"REV_AT_EPOCH":21899,"BSTAR":0.013194795,"MEAN_MOTION_DOT":8.574e-5,"MEAN_MOTION_DDOT":0},{"OBJECT_NAME":"CSS (WENTIAN)","OBJECT_ID":"2022-085A","EPOCH":"2026-04-29T14:41:34.924992","MEAN_MOTION":15.63165714,"ECCENTRICITY":0.00066922,"INCLINATION":41.467,"RA_OF_ASC_NODE":257.7391,"ARG_OF_PERICENTER":297.111,"MEAN_ANOMALY":62.9047,"EPHEMERIS_TYPE":0,"CLASSIFICATION_TYPE":"U","NORAD_CAT_ID":53239,"ELEMENT_SET_NO":999,"REV_AT_EPOCH":28579,"BSTAR":0.000273049,"MEAN_MOTION_DOT":0.00025434,"MEAN_MOTION_DDOT":0},{"OBJECT_NAME":"CSS (MENGTIAN)","OBJECT_ID":"2022-143A","EPOCH":"2026-04-29T19:17:34.939104","MEAN_MOTION":15.63178569,"ECCENTRICITY":0.0006704,"INCLINATION":41.4671,"RA_OF_ASC_NODE":256.5685,"ARG_OF_PERICENTER":298.3463,"MEAN_ANOMALY":61.67,"EPHEMERIS_TYPE":0,"CLASSIFICATION_TYPE":"U","NORAD_CAT_ID":54216,"ELEMENT_SET_NO":999,"REV_AT_EPOCH":28573,"BSTAR":0.00031039,"MEAN_MOTION_DOT":0.00028989,"MEAN_MOTION_DDOT":0},{"OBJECT_NAME":"TIANZHOU-9","OBJECT_ID":"2025-149A","EPOCH":"2026-04-29T19:17:34.939104","MEAN_MOTION":15.63178569,"ECCENTRICITY":0.0006704,"INCLINATION":41.4671,"RA_OF_ASC_NODE":256.5685,"ARG_OF_PERICENTER":298.3463,"MEAN_ANOMALY":61.67,"EPHEMERIS_TYPE":0,"CLASSIFICATION_TYPE":"U","NORAD_CAT_ID":64786,"ELEMENT_SET_NO":999,"REV_AT_EPOCH":28574,"BSTAR":0.00031039,"MEAN_MOTION_DOT":0.00028989,"MEAN_MOTION_DDOT":0},{"OBJECT_NAME":"HRC MONOBLOCK CAMERA","OBJECT_ID":"1998-067XR","EPOCH":"2026-04-29T20:19:31.494720","MEAN_MOTION":15.67823999,"ECCENTRICITY":0.0005062,"INCLINATION":51.6253,"RA_OF_ASC_NODE":166.2488,"ARG_OF_PERICENTER":353.5853,"MEAN_ANOMALY":6.5077,"EPHEMERIS_TYPE":0,"CLASSIFICATION_TYPE":"U","NORAD_CAT_ID":66052,"ELEMENT_SET_NO":999,"REV_AT_EPOCH":3040,"BSTAR":0.00053604,"MEAN_MOTION_DOT":0.00060081,"MEAN_MOTION_DDOT":0},{"OBJECT_NAME":"HTV-X1","OBJECT_ID":"2025-241A","EPOCH":"2026-04-29T15:30:33.612768","MEAN_MOTION":15.63110381,"ECCENTRICITY":0.0007211,"INCLINATION":51.6351,"RA_OF_ASC_NODE":185.8414,"ARG_OF_PERICENTER":6.0183,"MEAN_ANOMALY":354.0896,"EPHEMERIS_TYPE":0,"CLASSIFICATION_TYPE":"U","NORAD_CAT_ID":66174,"ELEMENT_SET_NO":999,"REV_AT_EPOCH":2875,"BSTAR":0.00014981,"MEAN_MOTION_DOT":0.00013424,"MEAN_MOTION_DDOT":0},{"OBJECT_NAME":"SZ-21 MODULE","OBJECT_ID":"2025-246C","EPOCH":"2026-04-29T08:54:20.568096","MEAN_MOTION":15.72486354,"ECCENTRICITY":0.00036112,"INCLINATION":41.4735,"RA_OF_ASC_NODE":250.4357,"ARG_OF_PERICENTER":348.4591,"MEAN_ANOMALY":11.6169,"EPHEMERIS_TYPE":0,"CLASSIFICATION_TYPE":"U","NORAD_CAT_ID":66515,"ELEMENT_SET_NO":999,"REV_AT_EPOCH":2604,"BSTAR":0.00027400395,"MEAN_MOTION_DOT":0.00037528,"MEAN_MOTION_DDOT":0},{"OBJECT_NAME":"SHENZHOU-22","OBJECT_ID":"2025-272A","EPOCH":"2026-04-29T19:17:34.939104","MEAN_MOTION":15.63178569,"ECCENTRICITY":0.0006704,"INCLINATION":41.4671,"RA_OF_ASC_NODE":256.5685,"ARG_OF_PERICENTER":298.3463,"MEAN_ANOMALY":61.67,"EPHEMERIS_TYPE":0,"CLASSIFICATION_TYPE":"U","NORAD_CAT_ID":66645,"ELEMENT_SET_NO":999,"REV_AT_EPOCH":28575,"BSTAR":0.00031039,"MEAN_MOTION_DOT":0.00028989,"MEAN_MOTION_DDOT":0},{"OBJECT_NAME":"SOYUZ-MS 28","OBJECT_ID":"2025-275A","EPOCH":"2026-04-29T16:24:41.969376","MEAN_MOTION":15.49024031,"ECCENTRICITY":0.0007117,"INCLINATION":51.6318,"RA_OF_ASC_NODE":180.1788,"ARG_OF_PERICENTER":4.9077,"MEAN_ANOMALY":355.1979,"EPHEMERIS_TYPE":0,"CLASSIFICATION_TYPE":"U","NORAD_CAT_ID":66664,"ELEMENT_SET_NO":999,"REV_AT_EPOCH":56452,"BSTAR":0.00014081,"MEAN_MOTION_DOT":7.324e-5,"MEAN_MOTION_DDOT":0},{"OBJECT_NAME":"DUPLEX","OBJECT_ID":"1998-067XS","EPOCH":"2026-04-29T20:09:30.761568","MEAN_MOTION":15.59346278,"ECCENTRICITY":0.0005211,"INCLINATION":51.6271,"RA_OF_ASC_NODE":172.9697,"ARG_OF_PERICENTER":358.9019,"MEAN_ANOMALY":1.1961,"EPHEMERIS_TYPE":0,"CLASSIFICATION_TYPE":"U","NORAD_CAT_ID":66906,"ELEMENT_SET_NO":999,"REV_AT_EPOCH":2310,"BSTAR":0.00025412,"MEAN_MOTION_DOT":0.00019977,"MEAN_MOTION_DDOT":0},{"OBJECT_NAME":"ISS OBJECT XT","OBJECT_ID":"1998-067XT","EPOCH":"2026-04-29T03:43:39.079488","MEAN_MOTION":15.98667726,"ECCENTRICITY":0.00115592,"INCLINATION":51.6153,"RA_OF_ASC_NODE":163.7537,"ARG_OF_PERICENTER":12.7298,"MEAN_ANOMALY":347.4001,"EPHEMERIS_TYPE":0,"CLASSIFICATION_TYPE":"U","NORAD_CAT_ID":66907,"ELEMENT_SET_NO":999,"REV_AT_EPOCH":2316,"BSTAR":0.0013205684,"MEAN_MOTION_DOT":0.00645359,"MEAN_MOTION_DDOT":0.00019387652},{"OBJECT_NAME":"ISS OBJECT XU","OBJECT_ID":"1998-067XU","EPOCH":"2026-04-29T09:24:00.432288","MEAN_MOTION":15.99960089,"ECCENTRICITY":0.00112762,"INCLINATION":51.6142,"RA_OF_ASC_NODE":162.3224,"ARG_OF_PERICENTER":13.068,"MEAN_ANOMALY":347.062,"EPHEMERIS_TYPE":0,"CLASSIFICATION_TYPE":"U","NORAD_CAT_ID":66908,"ELEMENT_SET_NO":999,"REV_AT_EPOCH":2320,"BSTAR":0.0013350841,"MEAN_MOTION_DOT":0.00701944,"MEAN_MOTION_DDOT":0.00023435727}]
