ISS (ZARYA)             
1 25544U 98067A   26119.68381909  .00007324  00000+0  14081-3 0  9995
2 25544  51.6318 180.1788 0007117   4.9077 355.1979 15.49024031564230
CSS (TIANHE)            
1 48274U 21035A   26119.80387661  .00028989  00000+0  31039-3 0  9998
2 48274  41.4671 256.5685 0006704 298.3463  61.6700 15.63178569285601
HTV-X1                  
1 66174U 25241A   26119.64622237  .00013424  00000+0  14981-3 0  9998
2 66174  51.6351 185.8414 0007211   6.0183 354.0896 15.63110381 28753
SZ-21 MODULE            
1 66515U 25246C   26119.37107139  .00037528  00000+0  27400-3 0  9992
2 66515  41.4735 250.4357 0003611 348.4591  11.6169 15.72486354 26041
POISK                   
1 36086U 09060A   26119.68381909  .00007324  00000+0  14081-3 0  9993
2 36086  51.6318 180.1788 0007117   4.9077 355.1979 15.49024031564244
ISS (NAUKA)             
1 49044U 21066A   26119.68381909  .00007324  00000+0  14081-3 0  9991
2 49044  51.6318 180.1788 0007117   4.9077 355.1979 15.49024031564286
FREGAT DEB              
1 49271U 11037PF  26119.43037095  .00008574  00000+0  13195-1 0  9998
2 49271  51.6406 148.3773 0938091 175.6076 185.3774 12.41136557218991
CSS (WENTIAN)           
1 53239U 22085A   26119.61220978  .00025434  00000+0  27305-3 0  9990
2 53239  41.4670 257.7391 0006692 297.1110  62.9047 15.63165714285792
CSS (MENGTIAN)          
1 54216U 22143A   26119.80387661  .00028989  00000+0  31039-3 0  9992
2 54216  41.4671 256.5685 0006704 298.3463  61.6700 15.63178569285738
TIANZHOU-9              
1 64786U 25149A   26119.80387661  .00028989  00000+0  31039-3 0  9994
2 64786  41.4671 256.5685 0006704 298.3463  61.6700 15.63178569285742
HRC MONOBLOCK CAMERA    
1 66052U 98067XR  26119.84689230  .00060081  00000+0  53604-3 0  9993
2 66052  51.6253 166.2488 0005062 353.5853   6.5077 15.67823999 30404
SHENZHOU-22             
1 66645U 25272A   26119.80387661  .00028989  00000+0  31039-3 0  9997
2 66645  41.4671 256.5685 0006704 298.3463  61.6700 15.63178569285759
SOYUZ-MS 28             
1 66664U 25275A   26119.68381909  .00007324  00000+0  14081-3 0  9994
2 66664  51.6318 180.1788 0007117   4.9077 355.1979 15.49024031564520
DUPLEX                  
1 66906U 98067XS  26119.83993937  .00019977  00000+0  25412-3 0  9996
2 66906  51.6271 172.9697 0005211 358.9019   1.1961 15.59346278 23100
ISS OBJECT XT           
1 66907U 98067XT  26119.15531342  .00645359  19388-3  13206-2 0  9999
2 66907  51.6153 163.7537 0011559  12.7298 347.4001 15.98667726 23161
ISS OBJECT XU           
1 66908U 98067XU  26119.39167167  .00701944  23436-3  13351-2 0  9999
2 66908  51.6142 162.3224 0011276  13.0680 347.0620 15.99960089 23200
